NORAD_CAT_ID,OBJECT_NAME,OBJECT_TYPE,EPOCH,MEAN_MOTION,ECCENTRICITY,INCLINATION,RA_OF_ASC_NODE,ARG_OF_PERICENTER,MEAN_ANOMALY,BSTAR,MEAN_MOTION_DOT,MEAN_MOTION_DDOT,TLE_LINE0,TLE_LINE1,TLE_LINE2,SEMIMAJOR_AXIS,PERIOD,APOGEE,PERIGEE,DECAYED
52612.0,STARLINK-4002,PAYLOAD,2024-02-01 15:32:06,15.08847736,0.0001572,53.2172,122.5055,84.8726,275.2446,0.00014889,2.083e-05,0.0,0 STARLINK-4002,1 52612U 22052Q   24032.64729370  .00002083  00000-0  14889-3 0  9992,2 52612  53.2172 122.5055 0001572  84.8726 275.2446 15.08847736 95067,6917.857,95.437,540.809,538.634,0.0
52612.0,STARLINK-4002,PAYLOAD,2024-02-02 12:12:07,15.08841765,0.0001682,53.2185,118.636,94.9511,265.1673,7.713e-05,9.4e-06,0.0,0 STARLINK-4002,1 52612U 22052Q   24033.50841763  .00000940  00000-0  77130-4 0  9998,2 52612  53.2185 118.6360 0001682  94.9511 265.1673 15.08841765 95563,6917.875,95.437,540.904,538.576,0.0
52612.0,STARLINK-4002,PAYLOAD,2024-02-03 12:02:54,15.08842439,0.0001652,53.2182,114.177,90.7367,269.3814,4.402e-05,4.13e-06,0.0,0 STARLINK-4002,1 52612U 22052Q   24034.50201779  .00000413  00000-0  44020-4 0  9993,2 52612  53.2182 114.1770 0001652  90.7367 269.3814 15.08842439 95344,6917.873,95.437,540.881,538.595,0.0
52612.0,STARLINK-4002,PAYLOAD,2024-02-03 15:13:40,15.08842702,0.0001655,53.2182,113.5823,90.6887,269.4294,4.2398e-05,3.87e-06,0.0,0 STARLINK-4002,1 52612U 22052Q   24034.63449732  .00000387  00000-0  42398-4 0  9996,2 52612  53.2182 113.5823 0001655  90.6887 269.4294 15.08842702 95734,6917.872,95.437,540.882,538.592,0.0
52612.0,STARLINK-4002,PAYLOAD,2024-02-04 11:53:41,15.08842893,0.0001605,53.2176,109.7168,82.6588,277.4586,9.1317e-05,1.166e-05,0.0,0 STARLINK-4002,1 52612U 22052Q   24035.49561686  .00001166  00000-0  91317-4 0  9995,2 52612  53.2176 109.7168 0001605  82.6588 277.4586 15.08842893 95497,6917.872,95.437,540.847,538.626,0.0
52612.0,STARLINK-4002,PAYLOAD,2024-02-05 03:47:32,15.08838596,0.0001482,53.2178,106.7472,86.995,273.1212,5.8634e-05,6.45e-06,0.0,0 STARLINK-4002,1 52612U 22052Q   24036.15802049  .00000645  00000-0  58634-4 0  9996,2 52612  53.2178 106.7472 0001482  86.9950 273.1212 15.08838596 95963,6917.885,95.438,540.775,538.724,0.0
52612.0,STARLINK-4002,PAYLOAD,2024-02-05 11:44:28,15.08840236,0.000157,53.2175,105.2622,98.2327,261.8844,7.8456e-05,9.61e-06,0.0,0 STARLINK-4002,1 52612U 22052Q   24036.48921922  .00000961  00000-0  78456-4 0  9999,2 52612  53.2175 105.2622 0001570  98.2327 261.8844 15.08840236 95647,6917.88,95.438,540.831,538.659,0.0
52612.0,STARLINK-4002,PAYLOAD,2024-02-06 03:38:19,15.08845203,0.0001638,53.2171,102.2869,102.6022,257.5153,0.00012983,1.779e-05,0.0,0 STARLINK-4002,1 52612U 22052Q   24037.15161326  .00001779  00000-0  12983-3 0  9998,2 52612  53.2171 102.2869 0001638 102.6022 257.5153 15.08845203 96117,6917.864,95.437,540.863,538.596,0.0
52612.0,STARLINK-4002,PAYLOAD,2024-02-06 11:35:14,15.08855872,0.0001369,53.2164,100.7997,98.4467,261.668,0.00014139,1.964e-05,0.0,0 STARLINK-4002,1 52612U 22052Q   24037.48280578  .00001964  00000-0  14139-3 0  9996,2 52612  53.2164 100.7997 0001369  98.4467 261.6680 15.08855872 95797,6917.832,95.437,540.644,538.75,0.0
52612.0,STARLINK-4002,PAYLOAD,2024-02-07 11:26:02,15.0883882,0.0001293,53.2153,96.3388,92.4811,267.6329,-3.4409e-06,-3.43e-06,0.0,0 STARLINK-4002,1 52612U 22052Q   24038.47641664 -.00000343  00000-0 -34409-5 0  9999,2 52612  53.2153  96.3388 0001293  92.4811 267.6329 15.08838820 96311,6917.884,95.438,540.643,538.855,0.0
52612.0,STARLINK-4002,PAYLOAD,2024-02-07 13:01:25,15.08840899,0.0001304,53.2151,96.0414,96.4278,263.6863,3.1879e-05,2.2e-06,0.0,0 STARLINK-4002,1 52612U 22052Q   24038.54265568  .00000220  00000-0  31879-4 0  9991,2 52612  53.2151  96.0414 0001304  96.4278 263.6863 15.08840899 95957,6917.878,95.437,540.645,538.841,0.0
52612.0,STARLINK-4002,PAYLOAD,2024-02-07 20:58:21,15.0883248,0.0001405,53.2157,94.5548,85.2008,274.9145,-7.5137e-05,-1.483e-05,0.0,0 STARLINK-4002,1 52612U 22052Q   24038.87386156 -.00001483  00000-0 -75137-4 0  9993,2 52612  53.2157  94.5548 0001405  85.2008 274.9145 15.08832480 96005,6917.903,95.438,540.74,538.796,0.0
52612.0,STARLINK-4002,PAYLOAD,2024-02-08 09:41:26,15.08834859,0.0001425,53.2163,92.1767,68.6319,291.4825,-4.2587e-05,-9.66e-06,0.0,0 STARLINK-4002,1 52612U 22052Q   24039.40378316 -.00000966  00000-0 -42587-4 0  9990,2 52612  53.2163  92.1767 0001425  68.6319 291.4825 15.08834859 96080,6917.896,95.438,540.747,538.775,0.0
52612.0,STARLINK-4002,PAYLOAD,2024-02-09 03:10:41,15.08839684,0.0001282,53.2144,88.9043,85.1933,274.9205,0.00022149,3.239e-05,0.0,0 STARLINK-4002,1 52612U 22052Q   24040.13242493  .00003239  00000-0  22149-3 0  9993,2 52612  53.2144  88.9043 0001282  85.1933 274.9205 15.08839684 96568,6917.881,95.438,540.633,538.859,0.0
52612.0,STARLINK-4002,PAYLOAD,2024-02-09 12:42:59,15.08856529,0.0001653,53.2167,87.1159,103.4698,256.6478,0.00054755,8.441e-05,0.0,0 STARLINK-4002,1 52612U 22052Q   24040.52985920  .00008441  00000-0  54755-3 0  9993,2 52612  53.2167  87.1159 0001653 103.4698 256.6478 15.08856529 96258,6917.83,95.437,540.838,538.551,0.0
52612.0,STARLINK-4002,PAYLOAD,2024-02-10 03:01:28,15.08838908,0.0001212,53.2139,84.4438,69.2955,290.8167,0.0001793,2.567e-05,0.0,0 STARLINK-4002,1 52612U 22052Q   24041.12602737  .00002567  00000-0  17930-3 0  9999,2 52612  53.2139  84.4438 0001212  69.2955 290.8167 15.08838908 96710,6917.884,95.438,540.587,538.91,0.0
52612.0,STARLINK-4002,PAYLOAD,2024-02-10 09:23:01,15.08844274,0.0001438,53.2159,83.2538,96.7299,263.3857,0.00023731,3.491e-05,0.0,0 STARLINK-4002,1 52612U 22052Q   24041.39098547  .00003491  00000-0  23731-3 0  9999,2 52612  53.2159  83.2538 0001438  96.7299 263.3857 15.08844274 96383,6917.867,95.437,540.727,538.738,0.0
52612.0,STARLINK-4002,PAYLOAD,2024-02-11 09:13:48,15.08842454,0.0001567,53.2166,78.7931,100.2622,259.8547,0.00014672,2.048e-05,0.0,0 STARLINK-4002,1 52612U 22052Q   24042.38458741  .00002048  00000-0  14672-3 0  9996,2 52612  53.2166  78.7931 0001567 100.2622 259.8547 15.08842454 96903,6917.873,95.437,540.822,538.654,0.0
52612.0,STARLINK-4002,PAYLOAD,2024-02-11 17:10:43,15.08846181,0.0001419,53.216,77.3038,96.3487,263.7667,0.00013822,1.913e-05,0.0,0 STARLINK-4002,1 52612U 22052Q   24042.71578528  .00001913  00000-0  13822-3 0  9995,2 52612  53.2160  77.3038 0001419  96.3487 263.7667 15.08846181 96582,6917.861,95.437,540.708,538.745,0.0
52612.0,STARLINK-4002,PAYLOAD,2024-02-12 09:04:35,15.08851558,0.0001558,53.2171,74.3294,88.368,271.7491,0.00036554,5.536e-05,0.0,0 STARLINK-4002,1 52612U 22052Q   24043.37818342  .00005536  00000-0  36554-3 0  9991,2 52612  53.2171  74.3294 0001558  88.3680 271.7491 15.08851558 96684,6917.845,95.437,540.788,538.632,0.0
52612.0,STARLINK-4002,PAYLOAD,2024-02-13 02:33:49,15.08839651,0.0001584,53.2171,71.0585,87.5523,272.5651,9.767e-06,-1.33e-06,0.0,0 STARLINK-4002,1 52612U 22052Q   24044.10682830 -.00000133  00000-0  97670-5 0  9991,2 52612  53.2171  71.0585 0001584  87.5523 272.5651 15.08839651 97168,6917.881,95.438,540.842,538.651,0.0
52612.0,STARLINK-4002,PAYLOAD,2024-02-13 08:55:22,15.08837281,0.0001497,53.2168,69.8715,81.914,278.2022,1.5825e-05,-3.6e-07,0.0,0 STARLINK-4002,1 52612U 22052Q   24044.37179170 -.00000036  00000-0  15825-4 0  9991,2 52612  53.2168  69.8715 0001497  81.9140 278.2022 15.08837281 96835,6917.889,95.438,540.789,538.718,0.0
52612.0,STARLINK-4002,PAYLOAD,2024-02-13 18:27:41,15.08837613,0.0001515,53.2169,68.0876,83.9195,276.197,1.738e-05,-1.1e-07,0.0,0 STARLINK-4002,1 52612U 22052Q   24044.76923275 -.00000011  00000-0  17380-4 0  9998,2 52612  53.2169  68.0876 0001515  83.9195 276.1970 15.08837613 96892,6917.888,95.438,540.801,538.705,0.0
52612.0,STARLINK-4002,PAYLOAD,2024-02-14 10:21:32,15.08855744,0.0001609,53.2166,65.1149,95.4838,264.6337,0.00040332,6.139e-05,0.0,0 STARLINK-4002,1 52612U 22052Q   24045.43162531  .00006139  00000-0  40332-3 0  9991,2 52612  53.2166  65.1149 0001609  95.4838 264.6337 15.08855744 97363,6917.832,95.437,540.81,538.584,0.0
52612.0,STARLINK-4002,PAYLOAD,2024-02-14 18:18:28,15.08843493,0.0001953,53.2166,63.6249,81.1661,278.9552,0.00021076,3.068e-05,0.0,0 STARLINK-4002,1 52612U 22052Q   24045.76282990  .00003068  00000-0  21076-3 0  9991,2 52612  53.2166  63.6249 0001953  81.1661 278.9552 15.08843493 97416,6917.87,95.437,541.086,538.384,0.0
52612.0,STARLINK-4002,PAYLOAD,2024-02-15 08:36:57,15.08837668,0.0001679,53.2162,60.9526,80.7728,279.3454,0.00015574,2.191e-05,0.0,0 STARLINK-4002,1 52612U 22052Q   24046.35899525  .00002191  00000-0  15574-3 0  9997,2 52612  53.2162  60.9526 0001679  80.7728 279.3454 15.08837668 97507,6917.888,95.438,540.914,538.591,0.0
52612.0,STARLINK-4002,PAYLOAD,2024-02-15 18:09:15,15.08850553,0.0001759,53.2165,59.1682,78.7528,281.3662,0.0010789,0.00016929,0.0,0 STARLINK-4002,1 52612U 22052Q   24046.75643469  .00016929  00000-0  10789-2 0  9991,2 52612  53.2165  59.1682 0001759  78.7528 281.3662 15.08850553 97194,6917.848,95.437,540.93,538.496,0.0
52612.0,STARLINK-4002,PAYLOAD,2024-02-16 06:52:20,15.08884164,0.0002211,53.2181,56.7884,79.2473,280.8768,0.0016271,0.00025734,0.0,0 STARLINK-4002,1 52612U 22052Q   24047.28634570  .00025734  00000-0  16271-2 0  9999,2 52612  53.2181  56.7884 0002211  79.2473 280.8768 15.08884164 97644,6917.745,95.435,541.14,538.081,0.0
52612.0,STARLINK-4002,PAYLOAD,2024-02-16 10:03:06,15.08842901,0.0001336,53.2169,56.1932,83.9692,276.1453,0.00012925,1.77e-05,0.0,0 STARLINK-4002,1 52612U 22052Q   24047.41882806  .00001770  00000-0  12925-3 0  9998,2 52612  53.2169  56.1932 0001336  83.9692 276.1453 15.08842901 97293,6917.872,95.437,540.661,538.812,0.0
52612.0,STARLINK-4002,PAYLOAD,2024-02-17 06:43:08,15.0884361,0.0001835,53.2169,52.3273,96.3323,263.7878,0.0013621,0.00021459,0.0,0 STARLINK-4002,1 52612U 22052Q   24048.27995593  .00021459  00000-0  13621-2 0  9990,2 52612  53.2169  52.3273 0001835  96.3323 263.7878 15.08843610 97428,6917.869,95.437,541.004,538.465,0.0
